COMMENT,ORIGINATOR,NORAD_CAT_ID,OBJECT_NAME,OBJECT_TYPE,CLASSIFICATION_TYPE,INTLDES,EPOCH,EPOCH_MICROSECONDS,MEAN_MOTION,ECCENTRICITY,INCLINATION,RA_OF_ASC_NODE,ARG_OF_PERICENTER,MEAN_ANOMALY,EPHEMERIS_TYPE,ELEMENT_SET_NO,REV_AT_EPOCH,BSTAR,MEAN_MOTION_DOT,MEAN_MOTION_DDOT,FILE,TLE_LINE0,TLE_LINE1,TLE_LINE2,OBJECT_ID,OBJECT_NUMBER,SEMIMAJOR_AXIS,PERIOD,APOGEE,PERIGEE,DECAYED,date
GENERATED VIA SPACETRACK.ORG API,18 SPCS,48886,SPACEBEE-102,PAYLOAD,U,21059H,2023/4/21 19:39,865440,15.2772223,0.0006869,97.5875,247.3331,117.5683,242.6254,0,999,10076,0.0013718,0.00037251,0,3891648,0 SPACEBEE-102,1 48886U 21059H   23111.81928085  .00037251  00000-0  13718-2 0  9990,2 48886  97.5875 247.3331 0006869 117.5683 242.6254 15.27722230100760,2021-059H,48886,6860.76,94.258,487.338,477.913,0,
GENERATED VIA SPACETRACK.ORG API,18 SPCS,48886,SPACEBEE-102,PAYLOAD,U,21059H,2023/4/21 19:39,865440,15.2772223,0.0006869,97.5875,247.3331,117.5683,242.6254,0,999,10076,0.0013718,0.00037251,0,3891716,0 SPACEBEE-102,1 48886U 21059H   23111.81928085  .00037251  00000-0  13718-2 0  9990,2 48886  97.5875 247.3331 0006869 117.5683 242.6254 15.27722230100760,2021-059H,48886,6860.76,94.258,487.338,477.913,0,
GENERATED VIA SPACETRACK.ORG API,18 SPCS,48886,SPACEBEE-102,PAYLOAD,U,21059H,2023/4/23 7:49,526656,15.27830089,0.0006733,97.5875,248.8656,112.714,247.4811,0,999,10099,0.0012309,0.00033509,0,3892688,0 SPACEBEE-102,1 48886U 21059H   23113.32570054  .00033509  00000-0  12309-2 0  9994,2 48886  97.5875 248.8656 0006733 112.7140 247.4811 15.27830089100990,2021-059H,48886,6860.437,94.251,486.921,477.683,0,
GENERATED VIA SPACETRACK.ORG API,18 SPCS,48886,SPACEBEE-102,PAYLOAD,U,21059H,2023/4/23 21:57,900736,15.27888902,0.000678,97.5874,249.4655,110.8223,249.3743,0,999,10108,0.0017816,0.00048721,0,3892989,0 SPACEBEE-102,1 48886U 21059H   23113.91513774  .00048721  00000-0  17816-2 0  9995,2 48886  97.5874 249.4655 0006780 110.8223 249.3743 15.27888902101081,2021-059H,48886,6860.261,94.248,486.778,477.475,0,
GENERATED VIA SPACETRACK.ORG API,18 SPCS,48886,SPACEBEE-102,PAYLOAD,U,21059H,2023/4/24 7:23,167296,15.27987438,0.0006809,97.5875,249.8656,109.1908,251.0068,0,999,10114,0.004438,0.00123055,0,3893330,0 SPACEBEE-102,1 48886U 21059H   23114.30808064  .00123055  00000-0  44380-2 0  9998,2 48886  97.5875 249.8656 0006809 109.1908 251.0068 15.27987438101141,2021-059H,48886,6859.966,94.242,486.502,477.16,0,
GENERATED VIA SPACETRACK.ORG API,18 SPCS,48886,SPACEBEE-102,PAYLOAD,U,21059H,2023/4/25 8:32,870432,15.28031755,0.000677,97.5874,250.9322,106.1721,254.0263,0,999,10130,0.0012461,0.00034136,0,3894092,0 SPACEBEE-102,1 48886U 21059H   23115.35587813  .00034136  00000-0  12461-2 0  9996,2 48886  97.5874 250.9322 0006770 106.1721 254.0263 15.28031755101301,2021-059H,48886,6859.834,94.239,486.343,477.055,0,
GENERATED VIA SPACETRACK.ORG API,18 SPCS,48886,SPACEBEE-102,PAYLOAD,U,21059H,2023/4/26 8:06,13984,15.28079983,0.0006745,97.5877,251.9325,103.0354,257.1638,0,999,10145,0.0010015,0.00027436,0,3894260,0 SPACEBEE-102,1 48886U 21059H   23116.33814831  .00027436  00000-0  10015-2 0  9996,2 48886  97.5877 251.9325 0006745 103.0354 257.1638 15.28079983101459,2021-059H,48886,6859.689,94.236,486.181,476.928,0,
GENERATED VIA SPACETRACK.ORG API,18 SPCS,48886,SPACEBEE-102,PAYLOAD,U,21059H,2023/4/27 7:41,67008,15.28140045,0.000664,97.5877,252.9327,99.49,260.7089,0,999,10160,0.0011304,0.00031048,0,3894751,0 SPACEBEE-102,1 48886U 21059H   23117.32038272  .00031048  00000-0  11304-2 0  9999,2 48886  97.5877 252.9327 0006640  99.4900 260.7089 15.28140045101606,2021-059H,48886,6859.51,94.232,485.929,476.82,0,
GENERATED VIA SPACETRACK.ORG API,18 SPCS,48886,SPACEBEE-102,PAYLOAD,U,21059H,2023/4/27 23:24,750720,15.28187175,0.0006656,97.5878,253.5996,97.1822,263.0174,0,999,10170,0.001278,0.00035182,0,3895280,0 SPACEBEE-102,1 48886U 21059H   23117.97518230  .00035182  00000-0  12780-2 0  9999,2 48886  97.5878 253.5996 0006656  97.1822 263.0174 15.28187175101708,2021-059H,48886,6859.369,94.229,485.799,476.668,0,
GENERATED VIA SPACETRACK.ORG API,18 SPCS,48886,SPACEBEE-102,PAYLOAD,U,21059H,2023/4/28 10:24,101728,15.28214001,0.0006632,97.5877,254.0664,95.7064,264.4932,0,999,10177,0.0011112,0.00030586,0,3895770,0 SPACEBEE-102,1 48886U 21059H   23118.43353127  .00030586  00000-0  11112-2 0  9994,2 48886  97.5877 254.0664 0006632  95.7064 264.4932 15.28214001101774,2021-059H,48886,6859.288,94.228,485.702,476.604,0,
GENERATED VIA SPACETRACK.ORG API,18 SPCS,48886,SPACEBEE-102,PAYLOAD,U,21059H,2023/4/29 3:41,259360,15.28259089,0.0006617,97.5877,254.7999,93.5262,266.6734,0,999,10188,0.0011125,0.00030664,0,3896217,0 SPACEBEE-102,1 48886U 21059H   23119.15377615  .00030664  00000-0  11125-2 0  9993,2 48886  97.5877 254.7999 0006617  93.5262 266.6734 15.28259089101882,2021-059H,48886,6859.153,94.225,485.557,476.48,0,
GENERATED VIA SPACETRACK.ORG API,18 SPCS,48886,SPACEBEE-102,PAYLOAD,U,21059H,2023/4/29 9:58,591296,15.28275933,0.0006607,97.5876,255.0667,92.629,267.5706,0,999,10192,0.0011015,0.00030375,0,3896517,0 SPACEBEE-102,1 48886U 21059H   23119.41567814  .00030375  00000-0  11015-2 0  9991,2 48886  97.5876 255.0667 0006607  92.6290 267.5706 15.28275933101927,2021-059H,48886,6859.103,94.224,485.5,476.436,0,
GENERATED VIA SPACETRACK.ORG API,18 SPCS,48886,SPACEBEE-102,PAYLOAD,U,21059H,2023/4/30 7:58,761120,15.28334163,0.0006475,97.5876,256.0005,89.5496,270.6485,0,999,10206,0.0010949,0.00030245,0,3897327,0 SPACEBEE-102,1 48886U 21059H   23120.33231205  .00030245  00000-0  10949-2 0  9997,2 48886  97.5876 256.0005 0006475  89.5496 270.6485 15.28334163102066,2021-059H,48886,6858.929,94.22,485.235,476.353,0,
GENERATED VIA SPACETRACK.ORG API,18 SPCS,48886,SPACEBEE-102,PAYLOAD,U,21059H,2023/4/30 7:58,761120,15.28334163,0.0006475,97.5876,256.0005,89.5496,270.6485,0,999,10206,0.0010949,0.00030245,0,3897442,0 SPACEBEE-102,1 48886U 21059H   23120.33231205  .00030245  00000-0  10949-2 0  9997,2 48886  97.5876 256.0005 0006475  89.5496 270.6485 15.28334163102066,2021-059H,48886,6858.929,94.22,485.235,476.353,0,
